ONEWEB-0340             
1 49206U 21083W   25124.53927698  .00000049  00000+0  91135-4 0  9993
2 49206  87.9149  56.6689 0002120  81.1868 278.9504 13.18688166177400
ONEWEB-0341             
1 49207U 21083X   25124.31955149  .00000094  00000+0  20462-3 0  9996
2 49207  87.9148  56.7227 0002016  97.8901 262.2460 13.18686879177399
ONEWEB-0342             
1 49208U 21083Y   25124.11268878  .00000078  00000+0  16093-3 0  9998
2 49208  87.9287 355.9008 0001660  81.5508 278.5813 13.20772202184087
ONEWEB-0343             
1 49209U 21083Z   25124.08717683 -.00000034  00000+0 -11858-3 0  9996
2 49209  87.9141  56.7572 0001657  97.7580 262.3740 13.18688112177416
ONEWEB-0344             
1 49210U 21083AA  25123.81759897 -.00001382  00000+0 -38193-2 0  9998
2 49210  87.8999  41.6277 0001959  93.4705 266.6648 13.13458660177153
ONEWEB-0345             
1 49211U 21083AB  25124.49475778 -.00000253  00000+0 -72756-3 0  9997
2 49211  87.8993  41.4475 0002100  93.6503 266.4866 13.13467763178552
ONEWEB-0346             
1 49212U 21083AC  25124.55191964 -.00000009  00000+0 -54651-4 0  9991
2 49212  87.9145  56.6860 0002587  76.1858 283.9562 13.18684522177417
ONEWEB-0348             
1 49213U 21083AD  25124.10322110  .00000070  00000+0  14108-3 0  9990
2 49213  87.9296 355.9052 0002405  91.4491 268.6917 13.20771522184114
